IRIDIUM 144             
1 43249U 18030A   24344.50110322 -.00000044  00000+0 -22635-4 0  9996
2 43249  86.3988 162.2768 0001667  86.7758 273.3628 14.34217220350655
IRIDIUM 149             
1 43250U 18030B   24344.08883456 -.00000005  00000+0 -90096-5 0  9990
2 43250  86.3986 162.4223 0001747  95.5827 264.5568 14.34217570350593
IRIDIUM 157             
1 43251U 18030C   24343.89855734  .00000020  00000+0  12112-6 0  9996
2 43251  86.3982 162.5425 0002068  93.1590 266.9842 14.34217553350540
IRIDIUM 140             
1 43252U 18030D   24344.05713033  .00000260  00000+0  85880-4 0  9997
2 43252  86.3982 162.4905 0001941  87.2633 272.8785 14.34217717350627
IRIDIUM 145             
1 43253U 18030E   24344.04443579 -.00000021  00000+0 -14428-4 0  9999
2 43253  86.3988 162.4689 0001447  90.9285 269.2076 14.34217380350559
IRIDIUM 146             
1 43254U 18030F   24344.23471316  .00000078  00000+0  20896-4 0  9997
2 43254  86.3979 162.4036 0001659  91.6588 268.4798 14.34217737350597
IRIDIUM 148             
1 43255U 18030G   24344.48207391  .00000150  00000+0  46602-4 0  9999
2 43255  86.3983 162.3350 0001840  94.9015 265.2391 14.34218554350675
IRIDIUM 142             
1 43256U 18030H   24343.89221319  .00000217  00000+0  70413-4 0  9991
2 43256  86.3979 162.4906 0001543  97.2441 262.8930 14.34216652350543
